INTELSAT 602 (IS-602)   
1 20315U 89087A   08166.59130933 -.00000133  00000-0  10000-3 0  7188
2 20315   6.0062  70.7971 0001565   1.0411 201.2535  1.00271499 66038
LEASAT 5                
1 20410U 90002B   08167.60787730 -.00000306  00000-0  10000-3 0  9318
2 20410   7.6683  37.1567 0002978 313.4423 232.5122  1.00270979 52766
INTELSAT 603 (IS-603)   
1 20523U 90021A   08167.08228604 -.00000148  00000-0  10000-3 0  2986
2 20523   5.4817  72.3680 0001135   3.9199 197.0853  1.00270627 59794
SBS-6                   
1 20872U 90091A   08167.40977873 -.00000213  00000-0  00000+0 0  9036
2 20872   0.8761  84.2202 0001956 341.2793 265.1727  1.00272762 53118
INTELSAT 605 (IS-605)   
1 21653U 91055A   08166.55798606  .00000018  00000-0  10000-3 0  6332
2 21653   3.5089  77.2415 0000948 337.0444 223.7874  1.00272685 61625
INTELSAT 601 (IS-601)   
1 21765U 91075A   08166.87600856  .00000135  00000-0  10000-3 0  5971
2 21765   3.5616  76.9786 0000875 291.4364 257.9705  1.00272617 60733
INTELSAT 701 (IS-701)   
1 22871U 93066A   08167.33964341  .00000066  00000-0  10000-3 0  2314
2 22871   0.0099 355.1505 0002639  84.4469 126.6704  1.00273303 53529
INTELSAT 702 (IS-702)   
1 23124U 94034A   08165.79471531  .00000095  00000-0  10000-3 0   415
2 23124   0.0067   9.7505 0003138  77.2362 156.4184  1.00273414 65423
INTELSAT 2 (IS-2)       
1 23175U 94040A   08167.51679765 -.00000018  00000-0  10000-3 0  2350
2 23175   0.0476 103.6770 0002490 359.4743 156.0618  1.00272965 50353
INTELSAT 704 (IS-704)   
1 23461U 95001A   08165.67410916  .00000007  00000-0  10000-3 0  7567
2 23461   0.0145 290.9287 0004664 155.5902 124.5061  1.00272670 49201
INTELSAT 705 (IS-705)   
1 23528U 95013A   08165.10741578 -.00000275  00000-0  10000-3 0  7370
2 23528   0.0208  26.2083 0004463  90.5036 133.7097  1.00269944 48370
INTELSAT 706 (IS-706)   
1 23571U 95023A   08167.81346588  .00000126  00000-0  10000-3 0  7612
2 23571   0.0050 335.0971 0003058 113.6334 158.8060  1.00272448 47894
INTELSAT 4 (IS-4)       
1 23636U 95040A   08167.79573571 -.00000045  00000-0  10000-3 0  8122
2 23636   0.0327  94.7529 0003256 356.2880 171.8518  1.00272842 47095
INTELSAT 3R (IS-3R)     
1 23764U 96002A   08166.07454981 -.00000259  00000-0  10000-3 0  5221
2 23764   0.0214  30.8154 0001697  30.2560 185.4639  1.00268210 45499
ANATOLIA 1 (PALAPA C1)  
1 23779U 96006A   08165.69380390  .00000163  00000-0  10000-3 0   228
2 23779   0.0070  95.7063 0002532 324.9042 129.4911  1.00272358 45232
INTELSAT 707 (IS-707)   
1 23816U 96015A   08164.19996706 -.00000281  00000-0  10000-3 0  7193
2 23816   0.0210  24.1921 0003092  72.6853 182.9773  1.00269138 44868
GALAXY 9 (G-9)          
1 23877U 96033A   08165.30734947 -.00000218  00000-0  10000-3 0  9238
2 23877   0.0108 303.9325 0007506 145.9356 201.7794  1.00278122 44162
INTELSAT 709 (IS-709)   
1 23915U 96035A   08167.02101948 -.00000173  00000-0  10000-3 0  7747
2 23915   0.0216  39.5278 0002539  45.0531 271.7855  1.00270606 43972
INTELSAT 801 (IS-801)   
1 24742U 97009A   08163.95149155 -.00000221  00000-0  10000-3 0  4851
2 24742   0.0346 102.2473 0004579 333.5159 135.8905  1.00269157 41363
GALAXY 25 (G-25)        
1 24812U 97026A   08165.46018825 -.00000130  00000-0  10000-3 0  7756
2 24812   0.0150  42.6901 0002680  27.2791 260.8212  1.00271100 40503
INTELSAT 802 (IS-802)   
1 24846U 97031A   08164.98746814  .00000163  00000-0  10000-3 0  6542
2 24846   0.0131   1.5399 0001985  75.2549 213.2586  1.00273112 40214
INTELSAT 5 (IS-5)       
1 24916U 97046A   08166.98409999  .00000157  00000-0  10000-3 0  5900
2 24916   0.0199  61.5694 0004737  67.2715 155.1700  1.00272205 39687
INTELSAT 805 (IS-805)   
1 25371U 98037A   08165.32783019 -.00000277  00000-0  10000-3 0  2374
2 25371   0.0054 287.3291 0003822 148.7225 248.4643  1.00271793 36601
INTELSAT 7 (IS-7)       
1 25473U 98052A   08165.80497720 -.00000017  00000-0  10000-3 0  5957
2 25473   0.0124 352.1732 0003010  84.3434 184.3894  1.00272236 35696
INTELSAT 8 (IS-8)       
1 25522U 98065A   08167.53023304 -.00000044  00000-0  10000-3 0  5052
2 25522   0.0318 352.5228 0002978  83.9576 184.5778  1.00272246 35283
INTELSAT 6B (IS-6B)     
1 25585U 98075A   08167.35010706 -.00000147  00000-0  10000-3 0  3078
2 25585   0.3139  83.3255 0019228 359.0900 242.5839  0.99152850 34792
GALAXY 26 (G-26)        
1 25626U 99005A   08165.35236477 -.00000155  00000-0  10000-3 0  3362
2 25626   0.0083  16.6317 0003187  77.4316 201.7961  1.00271453 34179
INSAT-2E (APR-1)        
1 25666U 99016A   08159.92733057 -.00000170  00000-0  10000-3 0  9004
2 25666   0.0892  99.6966 0000701 110.7950 102.9356  1.00268769 33744
GALAXY 27 (G-27)        
1 25922U 99052A   08164.33979822  .00000063  00000-0  10000-3 0  3556
2 25922   0.0058   0.2091 0001926  83.8750 170.2708  1.00273646 31914
GALAXY 11 (G-11)        
1 26038U 99071A   08165.34671192 -.00000166  00000-0  10000-3 0  5363
2 26038   0.0301 190.9397 0000721 113.0520 351.8013  1.00269168 31148
GALAXY 10R (G-10R)      
1 26056U 00002A   08165.51781168  .00000102  00000-0  00000+0 0  4085
2 26056   0.1277  90.1123 0002559  32.9926 197.1752  0.99851835 30784
GALAXY 4R (G-4R)        
1 26298U 00020A   08164.26487148 -.00000237  00000-0  00000-0 0  4996
2 26298   1.7548  81.3210 0002794 354.1172 203.9909  1.00269636 29965
INTELSAT 9 (IS-9)       
1 26451U 00043A   08167.37764289 -.00000272  00000-0  10000-3 0   800
2 26451   0.0163 243.8081 0002137 209.0920 249.0637  1.00269908 28906
INTELSAT 12 (IS-12)     
1 26590U 00068A   08159.14249015  .00000130  00000-0  10000-3 0  1287
2 26590   0.0121 289.3622 0002245 155.3829 267.4589  1.00273337 27888
INTELSAT 1R (IS-1R)     
1 26608U 00072A   08163.99577810 -.00000270  00000-0  10000-3 0  9416
2 26608   0.0389 135.7232 0000602 305.7781 132.6084  1.00269694 27781
INTELSAT 10 (IS-10)     
1 26766U 01019A   08166.89999897 -.00000013  00000-0  10000-3 0  1820
2 26766   0.0193  18.2004 0002183  62.9587 214.8792  1.00272476 25984
INTELSAT 901 (IS-901)   
1 26824U 01024A   08167.11952964 -.00000128  00000-0  10000-3 0  2650
2 26824   0.0041 331.0094 0003399 116.1898 201.5980  1.00271971 25737
INTELSAT 902 (IS-902)   
1 26900U 01039A   08165.76086795  .00000042  00000-0  10000-3 0  2306
2 26900   0.0216   1.5519 0003153  83.9750 152.7974  1.00272242 24891
INTELSAT 904 (IS-904)   
1 27380U 02007A   08164.97906646  .00000056  00000-0  10000-3 0  2421
2 27380   0.0125 337.0305 0002921 102.6200 234.4642  1.00272918 23130
INTELSAT 903 (IS-903)   
1 27403U 02016A   08167.06504689 -.00000226  00000-0  00000+0 0  1009
2 27403   0.0246  10.8278 0003562   9.0636 232.7831  1.00271085 22819
INTELSAT 905 (IS-905)   
1 27438U 02027A   08164.98246184 -.00000177  00000-0  10000-3 0  9749
2 27438   0.0872  80.5552 0003310 342.1117 168.1928  1.00271225 22115
GALAXY 3C (G-3C)        
1 27445U 02030A   08165.25231861 -.00000143  00000-0  10000-3 0  9044
2 27445   0.0412 160.0852 0000283 239.0685 218.5514  1.00271676 21996
INTELSAT 906 (IS-906)   
1 27513U 02041A   08167.80237512  .00000028  00000-0  10000-3 0   260
2 27513   0.0106 305.2369 0003197 150.6069 161.5880  1.00272421 21193
INTELSAT 907 (IS-907)   
1 27683U 03007A   08166.01410024 -.00000192  00000-0  10000-3 0  6689
2 27683   0.0083  10.1058 0003290  85.0912 145.0504  1.00271931 19534
GALAXY 12 (G-12)        
1 27715U 03013B   08162.70000000  .00000036  00000-0  00000+0 0  9430
2 27715   0.0380  13.8610 0003329 114.3700 258.0680  1.00272001 19021
GALAXY 23 (G-23)        
1 27854U 03034A   08167.57748017  .00000026  00000-0  10000-3 0  8303
2 27854   0.0115   7.3023 0003227  71.3094 272.4856  1.00271419 17825
GALAXY 13 (HORIZONS-1)  
1 27954U 03044A   08167.50815797  .00000060  00000-0  10000-3 0  7529
2 27954   0.0311  77.3280 0001847  40.9227 201.8204  1.00273254 17307
INTELSAT 10-02          
1 28358U 04022A   08163.97707043 -.00000007  00000-0  10000-3 0  5896
2 28358   0.0111  51.0127 0000902 331.0621 229.3610  1.00272253 14655
GALAXY 28 (G-28)        
1 28702U 05022A   08166.45940344 -.00000174  00000-0  10000-3 0  4983
2 28702   0.0095  22.2798 0003097 340.1225 337.0894  1.00271105 10946
GALAXY 14 (G-14)        
1 28790U 05030A   08166.33538803  .00000047  00000-0  00000-0 0  5456
2 28790   0.0172   3.3803 0002271  66.4632 188.8853  1.00273596 10368
GALAXY 15 (G-15)        
1 28884U 05041A   08167.40177037  .00000091  00000-0  10000-3 0  4541
2 28884   0.0073 352.2622 0002522  97.3388 186.0816  1.00272409  9805
GALAXY 16 (G-16)        
1 29236U 06023A   08167.14329779 -.00000115  00000-0  10000-3 0  3375
2 29236   0.0451 110.2142 0003333 336.7099 129.4433  1.00271308  7324
GALAXY 17 (G-17)        
1 31307U 07016B   08167.16995694  .00000037  00000-0  00000+0 0  2249
2 31307   0.0224  12.7291 0003088  73.7909 115.5875  1.00272231  4138
INTELSAT 11 (IS-11)     
1 32253U 07044B   08165.89189874 -.00000259  00000-0  10000-3 0  1133
2 32253   0.0358  45.0294 0002782  75.2764  60.2347  1.00272239  2579
HORIZONS 2 (H-2)        
1 32388U 07063B   08165.41298582 -.00000244  00000-0  00000+0 0   978
2 32388   0.0129  27.0776 0002508  44.8129 264.8009  1.00269342  1917
